[
  {
    "name": "ONEWEB-0721",
    "noradId": "56725",
    "line1": "1 56725U 23068R   26187.13033299  .00000129  00000+0  27403-3 0  9998",
    "line2": "2 56725  86.6756  79.4699 0001803  78.6311 281.5025 13.22471090160444"
  },
  {
    "name": "ONEWEB-0015",
    "noradId": "61594",
    "line1": "1 61594U 24188A   26187.07846750 -.00000054  00000+0 -18685-3 0  9990",
    "line2": "2 61594  87.8876  17.3308 0001731  71.3911 288.7405 13.11414873 86930"
  },
  {
    "name": "ONEWEB-0687",
    "noradId": "61595",
    "line1": "1 61595U 24188B   26186.98701777  .00000072  00000+0  15177-3 0  9990",
    "line2": "2 61595  87.9130   2.1351 0002162  79.3898 280.7477 13.17649545 88379"
  },
  {
    "name": "ONEWEB-0688",
    "noradId": "61596",
    "line1": "1 61596U 24188C   26186.93976023  .00000036  00000+0  58413-4 0  9995",
    "line2": "2 61596  87.9133   2.1441 0001746  52.0443 308.0846 13.17650032 88360"
  },
  {
    "name": "ONEWEB-0689",
    "noradId": "61597",
    "line1": "1 61597U 24188D   26187.03607833 -.00000028  00000+0 -11465-3 0  9996",
    "line2": "2 61597  87.8892  17.3000 0002147  86.9513 273.1861 13.11418179 86928"
  },
  {
    "name": "ONEWEB-0690",
    "noradId": "61598",
    "line1": "1 61598U 24188E   26187.12255894  .00000371  00000+0  10122-2 0  9990",
    "line2": "2 61598  87.8889  17.2936 0001336 102.7447 257.3831 13.11418213 87116"
  },
  {
    "name": "ONEWEB-0691",
    "noradId": "61599",
    "line1": "1 61599U 24188F   26187.04117092  .00000245  00000+0  65500-3 0  9990",
    "line2": "2 61599  87.8898  17.2201 0001887  76.3247 283.8091 13.11417378 86951"
  },
  {
    "name": "ONEWEB-0692",
    "noradId": "61600",
    "line1": "1 61600U 24188G   26187.06152444  .00000506  00000+0  13909-2 0  9990",
    "line2": "2 61600  87.8879  17.3259 0002492 101.5034 258.6374 13.11416414 86948"
  },
  {
    "name": "ONEWEB-0693",
    "noradId": "61601",
    "line1": "1 61601U 24188H   26187.02751676  .00000039  00000+0  67405-4 0  9992",
    "line2": "2 61601  87.9129   2.1460 0001129 103.5553 256.5704 13.17649800 88363"
  },
  {
    "name": "ONEWEB-0695",
    "noradId": "61602",
    "line1": "1 61602U 24188J   26187.03778076 -.00000018  00000+0 -87469-4 0  9998",
    "line2": "2 61602  87.8881  17.3227 0002365  92.2150 267.9249 13.11418280 86938"
  },
  {
    "name": "ONEWEB-0697",
    "noradId": "61603",
    "line1": "1 61603U 24188K   26187.06999953  .00000264  00000+0  70999-3 0  9991",
    "line2": "2 61603  87.8878  17.3066 0002421 103.4097 256.7301 13.11414770 86928"
  },
  {
    "name": "ONEWEB-0698",
    "noradId": "61604",
    "line1": "1 61604U 24188L   26187.04796044  .00000432  00000+0  11832-2 0  9993",
    "line2": "2 61604  87.8878  17.3247 0002032 123.3169 236.8154 13.11417434 86946"
  },
  {
    "name": "ONEWEB-0699",
    "noradId": "61605",
    "line1": "1 61605U 24188M   26187.07553795 -.00000460  00000+0 -13554-2 0  9997",
    "line2": "2 61605  87.8825  32.5024 0002223 101.7061 258.4316 13.10372050 85788"
  },
  {
    "name": "ONEWEB-0700",
    "noradId": "61606",
    "line1": "1 61606U 24188N   26187.07723444 -.00000068  00000+0 -23152-3 0  9998",
    "line2": "2 61606  87.8842  32.4142 0002374  95.5772 264.5626 13.10374884 85772"
  },
  {
    "name": "ONEWEB-0701",
    "noradId": "61607",
    "line1": "1 61607U 24188P   26187.09423089  .00000732  00000+0  20594-2 0  9995",
    "line2": "2 61607  87.8822  32.4985 0002343 104.9223 255.2164 13.10373785 85782"
  },
  {
    "name": "ONEWEB-0702",
    "noradId": "61608",
    "line1": "1 61608U 24188Q   26187.09372577 -.00000506  00000+0 -14638-2 0  9994",
    "line2": "2 61608  87.8897  17.2250 0002755 101.4375 258.7063 13.11416054 86963"
  },
  {
    "name": "ONEWEB-0704",
    "noradId": "61609",
    "line1": "1 61609U 24188R   26187.08232844  .00000177  00000+0  47083-3 0  9999",
    "line2": "2 61609  87.8828  32.4909 0002777  97.1980 262.9463 13.10374678 85767"
  },
  {
    "name": "ONEWEB-0705",
    "noradId": "61610",
    "line1": "1 61610U 24188S   26187.08743871  .00000500  00000+0  13970-2 0  9995",
    "line2": "2 61610  87.8829  32.4956 0002830  81.1450 278.9998 13.10375908 77934"
  },
  {
    "name": "ONEWEB-0706",
    "noradId": "61611",
    "line1": "1 61611U 24188T   26187.07214895 -.00000471  00000+0 -13861-2 0  9992",
    "line2": "2 61611  87.8824  32.5028 0002400  90.7508 269.3895 13.10376014 85853"
  },
  {
    "name": "ONEWEB-0707",
    "noradId": "61612",
    "line1": "1 61612U 24188U   26187.07893174  .00000035  00000+0  64570-4 0  9995",
    "line2": "2 61612  87.8829  32.4963 0002392  90.7055 269.4347 13.10375281 85794"
  },
  {
    "name": "ONEWEB-0708",
    "noradId": "61613",
    "line1": "1 61613U 24188V   26187.09762237  .00000712  00000+0  20039-2 0  9995",
    "line2": "2 61613  87.8818  32.5094 0002211  74.0464 286.0907 13.10377901 85774"
  }
]