OBJECT_NAME,OBJECT_ID,EPOCH,MEAN_MOTION,ECCENTRICITY,INCLINATION,RA_OF_ASC_NODE,ARG_OF_PERICENTER,MEAN_ANOMALY,EPHEMERIS_TYPE,CLASSIFICATION_TYPE,NORAD_CAT_ID,ELEMENT_SET_NO,REV_AT_EPOCH,BSTAR,MEAN_MOTION_DOT,MEAN_MOTION_DDOT
ONEWEB-0721,2023-068R,2026-07-06T03:07:40.770336,13.22471090,.00018035,86.6756,79.4699,78.6311,281.5025,0,U,56725,999,16044,.27402995E-3,.129E-5,0
ONEWEB-0015,2024-188A,2026-07-06T01:52:59.592000,13.11414873,.00017312,87.8876,17.3308,71.3911,288.7405,0,U,61594,999,8693,-.18684771E-3,-.54E-6,0
ONEWEB-0687,2024-188B,2026-07-05T23:41:18.335328,13.17649545,.00021621,87.9130,2.1351,79.3898,280.7477,0,U,61595,999,8837,.15176893E-3,.72E-6,0
ONEWEB-0688,2024-188C,2026-07-05T22:33:15.283872,13.17650032,.00017465,87.9133,2.1441,52.0443,308.0846,0,U,61596,999,8836,.58412892E-4,.36E-6,0
ONEWEB-0689,2024-188D,2026-07-06T00:51:57.167712,13.11418179,.00021478,87.8892,17.3000,86.9513,273.1861,0,U,61597,999,8692,-.11465215E-3,-.28E-6,0
ONEWEB-0690,2024-188E,2026-07-06T02:56:29.092416,13.11418213,.00013365,87.8889,17.2936,102.7447,257.3831,0,U,61598,999,8711,.1012214E-2,.371E-5,0
ONEWEB-0691,2024-188F,2026-07-06T00:59:17.167488,13.11417378,.00018876,87.8898,17.2201,76.3247,283.8091,0,U,61599,999,8695,.65500491E-3,.245E-5,0
ONEWEB-0692,2024-188G,2026-07-06T01:28:35.711616,13.11416414,.00024923,87.8879,17.3259,101.5034,258.6374,0,U,61600,999,8694,.13909056E-2,.506E-5,0
ONEWEB-0693,2024-188H,2026-07-06T00:39:37.448064,13.17649800,.00011299,87.9129,2.1460,103.5553,256.5704,0,U,61601,999,8836,.67405056E-4,.39E-6,0
ONEWEB-0695,2024-188J,2026-07-06T00:54:24.257664,13.11418280,.00023654,87.8881,17.3227,92.2150,267.9249,0,U,61602,999,8693,-.87469472E-4,-.18E-6,0
ONEWEB-0697,2024-188K,2026-07-06T01:40:47.959392,13.11414770,.0002421,87.8878,17.3066,103.4097,256.7301,0,U,61603,999,8692,.70998543E-3,.264E-5,0
ONEWEB-0698,2024-188L,2026-07-06T01:09:03.782016,13.11417434,.00020322,87.8878,17.3247,123.3169,236.8154,0,U,61604,999,8694,.11832301E-2,.432E-5,0
ONEWEB-0699,2024-188M,2026-07-06T01:48:46.478880,13.10372050,.00022237,87.8825,32.5024,101.7061,258.4316,0,U,61605,999,8578,-.13553954E-2,-.46E-5,0
ONEWEB-0700,2024-188N,2026-07-06T01:51:13.055616,13.10374884,.00023746,87.8842,32.4142,95.5772,264.5626,0,U,61606,999,8577,-.23151534E-3,-.68E-6,0
ONEWEB-0701,2024-188P,2026-07-06T02:15:41.548896,13.10373785,.00023435,87.8822,32.4985,104.9223,255.2164,0,U,61607,999,8578,.20593863E-2,.732E-5,0
ONEWEB-0702,2024-188Q,2026-07-06T02:14:57.906528,13.11416054,.00027557,87.8897,17.2250,101.4375,258.7063,0,U,61608,999,8696,-.14637727E-2,-.506E-5,0
ONEWEB-0704,2024-188R,2026-07-06T01:58:33.177216,13.10374678,.00027772,87.8828,32.4909,97.1980,262.9463,0,U,61609,999,8576,.47083376E-3,.177E-5,0
ONEWEB-0705,2024-188S,2026-07-06T02:05:54.704544,13.10375908,.00028309,87.8829,32.4956,81.1450,278.9998,0,U,61610,999,7793,.13969577E-2,.5E-5,0
ONEWEB-0706,2024-188T,2026-07-06T01:43:53.669280,13.10376014,.00024009,87.8824,32.5028,90.7508,269.3895,0,U,61611,999,8585,-.13861423E-2,-.471E-5,0
ONEWEB-0707,2024-188U,2026-07-06T01:53:39.702336,13.10375281,.00023924,87.8829,32.4963,90.7055,269.4347,0,U,61612,999,8579,.64570038E-4,.35E-6,0
ONEWEB-0708,2024-188V,2026-07-06T02:20:34.572768,13.10377901,.00022119,87.8818,32.5094,74.0464,286.0907,0,U,61613,999,8577,.2003927E-2,.712E-5,0
